{
  "type": "FeatureCollection",
  "features": [
    {
      "type": "Feature",
      "properties": {
        "norad_id": 27954,
        "name": "GALAXY 13 (HORIZONS-1)",
        "group": "intelsat",
        "lat": 0.9267355421050611,
        "lon": -166.14448363785164,
        "alt_km": 35783.968178296316,
        "timestamp": "2025-12-26T16:33:55.251232+00:00",
        "meta_object_name": "GALAXY 13 (HORIZONS-1)",
        "meta_object_id": "2003-044A",
        "meta_epoch": "2025-12-26T06:07:29.116704",
        "meta_mean_motion": 1.00272392,
        "meta_eccentricity": 0.00023019,
        "meta_inclination": 0.9718,
        "meta_ra_of_asc_node": 86.2951,
        "meta_arg_of_pericenter": 187.0647,
        "meta_mean_anomaly": 123.4865,
        "meta_ephemeris_type": 0,
        "meta_classification_type": "U",
        "meta_norad_cat_id": 27954,
        "meta_element_set_no": 999,
        "meta_rev_at_epoch": 4483,
        "meta_bstar": 0,
        "meta_mean_motion_dot": 1.54e-06,
        "meta_mean_motion_ddot": 0,
        "tle_line1": "1 27954U 03044A   25360.25519811  .00000154  00000+0  00000+0 0  9994",
        "tle_line2": "2 27954   0.9718  86.2951 0002301 187.0647 123.4865  1.00272392 44838"
      },
      "geometry": {
        "type": "Point",
        "coordinates": [
          -166.14448363785164,
          0.9267355421050611
        ]
      }
    },
    {
      "type": "Feature",
      "properties": {
        "norad_id": 28358,
        "name": "INTELSAT 10-02",
        "group": "intelsat",
        "lat": -0.025414166850698253,
        "lon": -17.041282542802204,
        "alt_km": 35782.59960795603,
        "timestamp": "2025-12-26T16:33:55.251243+00:00",
        "meta_object_name": "INTELSAT 10-02",
        "meta_object_id": "2004-022A",
        "meta_epoch": "2025-12-26T04:28:15.278016",
        "meta_mean_motion": 1.0027051,
        "meta_eccentricity": 0.00012261,
        "meta_inclination": 0.0179,
        "meta_ra_of_asc_node": 39.4265,
        "meta_arg_of_pericenter": 261.2502,
        "meta_mean_anomaly": 220.3686,
        "meta_ephemeris_type": 0,
        "meta_classification_type": "U",
        "meta_norad_cat_id": 28358,
        "meta_element_set_no": 999,
        "meta_rev_at_epoch": 7882,
        "meta_bstar": 0,
        "meta_mean_motion_dot": 1.1e-07,
        "meta_mean_motion_ddot": 0,
        "tle_line1": "1 28358U 04022A   25360.18628794  .00000011  00000+0  00000+0 0  9995",
        "tle_line2": "2 28358   0.0179  39.4265 0001226 261.2502 220.3686  1.00270510 78821"
      },
      "geometry": {
        "type": "Point",
        "coordinates": [
          -17.041282542802204,
          -0.025414166850698253
        ]
      }
    },
    {
      "type": "Feature",
      "properties": {
        "norad_id": 28626,
        "name": "XM-3 (RHYTHM)",
        "group": "intelsat",
        "lat": -0.1533366097840147,
        "lon": 31.88809611400067,
        "alt_km": 36153.0759710213,
        "timestamp": "2025-12-26T16:33:55.251255+00:00",
        "meta_object_name": "XM-3 (RHYTHM)",
        "meta_object_id": "2005-008A",
        "meta_epoch": "2025-12-26T04:42:51.380064",
        "meta_mean_motion": 0.98950411,
        "meta_eccentricity": 0.00022371,
        "meta_inclination": 0.2074,
        "meta_ra_of_asc_node": 82.2895,
        "meta_arg_of_pericenter": 272.1799,
        "meta_mean_anomaly": 221.5062,
        "meta_ephemeris_type": 0,
        "meta_classification_type": "U",
        "meta_norad_cat_id": 28626,
        "meta_element_set_no": 999,
        "meta_rev_at_epoch": 4088,
        "meta_bstar": 0,
        "meta_mean_motion_dot": 8.6e-07,
        "meta_mean_motion_ddot": 0,
        "tle_line1": "1 28626U 05008A   25360.19642801  .00000086  00000+0  00000+0 0  9996",
        "tle_line2": "2 28626   0.2074  82.2895 0002237 272.1799 221.5062  0.98950411 40889"
      },
      "geometry": {
        "type": "Point",
        "coordinates": [
          31.88809611400067,
          -0.1533366097840147
        ]
      }
    },
    {
      "type": "Feature",
      "properties": {
        "norad_id": 28659,
        "name": "DIRECTV 8",
        "group": "intelsat",
        "lat": -0.0037906910491333984,
        "lon": -135.1664364437913,
        "alt_km": 35779.534290121046,
        "timestamp": "2025-12-26T16:33:55.251266+00:00",
        "meta_object_name": "DIRECTV 8",
        "meta_object_id": "2005-019A",
        "meta_epoch": "2025-12-26T05:50:36.893184",
        "meta_mean_motion": 1.0027176,
        "meta_eccentricity": 0.00031191,
        "meta_inclination": 0.0131,
        "meta_ra_of_asc_node": 55.59,
        "meta_arg_of_pericenter": 229.6508,
        "meta_mean_anomaly": 138.3642,
        "meta_ephemeris_type": 0,
        "meta_classification_type": "U",
        "meta_norad_cat_id": 28659,
        "meta_element_set_no": 999,
        "meta_rev_at_epoch": 7533,
        "meta_bstar": 0,
        "meta_mean_motion_dot": 2.3e-07,
        "meta_mean_motion_ddot": 0,
        "tle_line1": "1 28659U 05019A   25360.24348256  .00000023  00000+0  00000+0 0  9998",
        "tle_line2": "2 28659   0.0131  55.5900 0003119 229.6508 138.3642  1.00271760 75336"
      },
      "geometry": {
        "type": "Point",
        "coordinates": [
          -135.1664364437913,
          -0.0037906910491333984
        ]
      }
    },
    {
      "type": "Feature",
      "properties": {
        "norad_id": 28702,
        "name": "GALAXY 28 (G-28)",
        "group": "intelsat",
        "lat": -0.11844071993218203,
        "lon": -96.8483981871126,
        "alt_km": 35680.81339841824,
        "timestamp": "2025-12-26T16:33:55.251276+00:00",
        "meta_object_name": "GALAXY 28 (G-28)",
        "meta_object_id": "2005-022A",
        "meta_epoch": "2025-12-26T06:10:59.834208",
        "meta_mean_motion": 1.00599742,
        "meta_eccentricity": 0.00034714,
        "meta_inclination": 2.8544,
        "meta_ra_of_asc_node": 81.1244,
        "meta_arg_of_pericenter": 160.5701,
        "meta_mean_anomaly": 224.7813,
        "meta_ephemeris_type": 0,
        "meta_classification_type": "U",
        "meta_norad_cat_id": 28702,
        "meta_element_set_no": 999,
        "meta_rev_at_epoch": 5024,
        "meta_bstar": 0,
        "meta_mean_motion_dot": -2.32e-06,
        "meta_mean_motion_ddot": 0,
        "tle_line1": "1 28702U 05022A   25360.25763697 -.00000232  00000+0  00000+0 0  9995",
        "tle_line2": "2 28702   2.8544  81.1244 0003471 160.5701 224.7813  1.00599742 50244"
      },
      "geometry": {
        "type": "Point",
        "coordinates": [
          -96.8483981871126,
          -0.11844071993218203
        ]
      }
    },
    {
      "type": "Feature",
      "properties": {
        "norad_id": 29236,
        "name": "GALAXY 16 (G-16)",
        "group": "intelsat",
        "lat": 0.006927526319291099,
        "lon": -115.13107038682084,
        "alt_km": 35776.64172695713,
        "timestamp": "2025-12-26T16:33:55.251288+00:00",
        "meta_object_name": "GALAXY 16 (G-16)",
        "meta_object_id": "2006-023A",
        "meta_epoch": "2025-12-26T02:31:07.100256",
        "meta_mean_motion": 1.00269716,
        "meta_eccentricity": 0.00027889,
        "meta_inclination": 0.0031,
        "meta_ra_of_asc_node": 236.6116,
        "meta_arg_of_pericenter": 40.0302,
        "meta_mean_anomaly": 116.978,
        "meta_ephemeris_type": 0,
        "meta_classification_type": "U",
        "meta_norad_cat_id": 29236,
        "meta_element_set_no": 999,
        "meta_rev_at_epoch": 7123,
        "meta_bstar": 0,
        "meta_mean_motion_dot": 0,
        "meta_mean_motion_ddot": 0,
        "tle_line1": "1 29236U 06023A   25360.10494329  .00000000  00000+0  00000+0 0  9999",
        "tle_line2": "2 29236   0.0031 236.6116 0002788  40.0302 116.9780  1.00269716 71234"
      },
      "geometry": {
        "type": "Point",
        "coordinates": [
          -115.13107038682084,
          0.006927526319291099
        ]
      }
    },
    {
      "type": "Feature",
      "properties": {
        "norad_id": 29494,
        "name": "DIRECTV 9S",
        "group": "intelsat",
        "lat": 0.6732855679184705,
        "lon": -117.3064687814271,
        "alt_km": 35775.78525488697,
        "timestamp": "2025-12-26T16:33:55.251298+00:00",
        "meta_object_name": "DIRECTV 9S",
        "meta_object_id": "2006-043A",
        "meta_epoch": "2025-12-26T01:32:00.301632",
        "meta_mean_motion": 1.00271558,
        "meta_eccentricity": 0.00030532,
        "meta_inclination": 1.9726,
        "meta_ra_of_asc_node": 83.07,
        "meta_arg_of_pericenter": 196.9132,
        "meta_mean_anomaly": 96.6295,
        "meta_ephemeris_type": 0,
        "meta_classification_type": "U",
        "meta_norad_cat_id": 29494,
        "meta_element_set_no": 999,
        "meta_rev_at_epoch": 4964,
        "meta_bstar": 0,
        "meta_mean_motion_dot": -9.2e-07,
        "meta_mean_motion_ddot": 0,
        "tle_line1": "1 29494U 06043A   25360.06389238 -.00000092  00000+0  00000+0 0  9996",
        "tle_line2": "2 29494   1.9726  83.0700 0003053 196.9132  96.6295  1.00271558 49644"
      },
      "geometry": {
        "type": "Point",
        "coordinates": [
          -117.3064687814271,
          0.6732855679184705
        ]
      }
    }
  ]
}